QIANFAN-73              
1 63159U 25046A   25324.23781606  .00000029  00000+0  26747-4 0  9990
2 63159  88.9750 322.3544 0014734 181.8038 178.3063 13.50973835 44374
QIANFAN-74              
1 63160U 25046B   25324.29533999  .00000054  00000+0  64664-4 0  9996
2 63160  88.9750 322.2370 0002017  86.7001 273.4381 13.50975993 44441
QIANFAN-75              
1 63161U 25046C   25324.28269336  .00000109  00000+0  15069-3 0  9992
2 63161  88.9752 322.4716 0015751 185.3311 174.7675 13.50988592 44313
QIANFAN-76              
1 63162U 25046D   25324.27901961 -.00000128  00000+0 -21717-3 0  9999
2 63162  88.9750 322.4529 0013291 184.9745 175.1277 13.50966288 44329
QIANFAN-77              
1 63163U 25046E   25324.03684652  .00000057  00000+0  31696-4 0  9996
2 63163  88.9751 320.6712 0015933 144.5222 215.7018 13.96077830 45288
QIANFAN-78              
1 63164U 25046F   25324.24602246  .00000002  00000+0 -15619-4 0  9997
2 63164  88.9750 322.3204 0014608 188.1044 171.9873 13.50974662 44399
QIANFAN-79              
1 63165U 25046G   25324.27470740  .00000031  00000+0  29674-4 0  9990
2 63165  88.9754 322.4241 0014342 185.8666 174.2320 13.50975459 44348
QIANFAN-80              
1 63166U 25046H   25324.29122071  .00000086  00000+0  11524-3 0  9998
2 63166  88.9752 322.1297 0013183 189.8053 170.2843 13.50979411 44507
